CUBEBEL-1 (BSUSAT-1)    
1 43666U 18083E   21240.49735159  .00001435  00000-0  70560-4 0  9992
2 43666  97.4526 267.9542 0012720 278.4976 221.1572 15.19597974156953
CICERO 10               
1 43690U 18088A   21240.20592395  .00003277  00000-0  14367-3 0  9994
2 43690  85.0406 150.3320 0015733 138.7765 221.4668 15.21472741155135
IRVINE01                
1 43693U 18088D   21240.23089217  .00011381  00000-0  43584-3 0  9992
2 43693  85.0357 147.2428 0018346 114.4100 245.9061 15.26246266155385
PROXIMA I               
1 43694U 18088E   21240.22614680  .00003041  00000-0  12623-3 0  9994
2 43694  85.0344 147.7496 0020687 112.4368 247.9068 15.23192881155308
PROXIMA II              
1 43696U 18088G   21240.22453532  .00003018  00000-0  12529-3 0  9992
2 43696  85.0346 147.7609 0020717 112.4113 247.9327 15.23188310155298
FACSAT-1                
1 43721U 18096C   21240.51692045  .00002783  00000-0  10023-3 0  9991
2 43721  97.3811 317.1119 0017166  21.2462  96.9369 15.29292333153133
CENTAURI-2              
1 43722U 18096D   21240.34490364  .00008837  00000-0  30061-3 0  9993
2 43722  97.3838 317.8939 0016478  20.6786 339.5118 15.30540761153150
INNOSAT-2               
1 43738U 18096V   21240.55901988  .00005898  00000-0  17880-3 0  9990
2 43738  97.3913 322.3363 0020721  18.0959  95.2463 15.34311653153454
SIRION PATHFINDER-2     
1 43759U 18099B   21240.38432811  .00000505  00000-0  50585-4 0  9991
2 43759  97.6591 309.3693 0014799 157.7540 202.4326 14.95577512149233
CORVUS BC4              
1 43767U 18099K   21240.42362559  .00000591  00000-0  59141-4 0  9998
2 43767  97.6565 308.3112 0012167 160.6563 199.5122 14.95000970149186
MOVE-II                 
1 43780U 18099Y   21240.18096591  .00001192  00000-0  11111-3 0  9998
2 43780  97.6620 309.3897 0013700 168.7332 191.4199 14.96049401149190
SPACEBEE-7              
1 43816U 18099BL  21240.18335917  .00000960  00000-0  90035-4 0  9991
2 43816  97.6635 310.0228 0013966 153.2088 206.9858 14.96231392148784
SPACEBEE-5              
1 43817U 18099BM  21240.12721899  .00002111  00000-0  18542-3 0  9996
2 43817  97.6727 311.4561 0013781 152.8640 207.3305 14.97584939148833
SPACEBEE-6              
1 43818U 18099BN  21240.19576401  .00001894  00000-0  17091-3 0  9996
2 43818  97.6661 310.4890 0014042 152.7462 207.4500 14.96642502148958
SHIELDS 1               
1 43850U 18104B   21240.05695107  .00001047  00000-0  44035-4 0  9998
2 43850  85.0261 246.5392 0012291 264.3964  95.5876 15.21997879149860
STF-1                   
1 43852U 18104D   21240.06102842  .00002540  00000-0  10720-3 0  9992
2 43852  85.0299 247.1940 0011595 281.3443  78.6496 15.22703502149854
ZACUBE-2                
1 43907U 18111AH  21240.49855530  .00000961  00000-0  40652-4 0  9990
2 43907  97.2228 132.1901 0022457  41.4029  83.5777 15.25339924148612
LUME 1                  
1 43908U 18111AJ  21240.24547830  .00004513  00000-0  17451-3 0  9992
2 43908  97.2232 132.6383 0021541  40.7475 319.5370 15.26501107148624
AOBA VELOX-IV           
1 43940U 19003J   21240.36266307  .00010430  00000-0  38275-3 0  9991
2 43940  97.1720 281.7492 0023900 112.1537 248.2243 15.27858713145287
UNITE                   
1 44031U 98067PX  21240.36791664  .00168188  00000-0  60823-3 0  9997
2 44031  51.6361 251.0979 0003440  30.9274 329.1933 15.87587226147064
RAAVANA-1               
1 44329U 98067QE  21240.33344948  .00241529  00000-0  78180-3 0  9999
2 44329  51.6307 271.1745 0003793  25.5683 334.5509 15.89613520125540
UGUISU                  
1 44330U 98067QF  21240.37123304  .00220569  00000-0  76783-3 0  9994
2 44330  51.6262 272.0505 0003238  26.6707 333.4464 15.88215881125511
NEPALISAT-1             
1 44331U 98067QG  21240.33662018  .00234733  00000-0  77116-3 0  9990
2 44331  51.6279 271.0785 0003702  26.4789 333.6405 15.89336316125530
SPOOQY-1                
1 44332U 98067QH  21240.35983926  .00190106  00000-0  70552-3 0  9999
2 44332  51.6291 272.8040 0003433  23.6150 336.5012 15.86999702125470
SPACEBEE-9              
1 44370U 19037F   21240.23242702  .00096279  00000-0  10548-2 0  9992
2 44370  44.9960 167.3402 0004153 229.4526 130.6009 15.62287205122392
MOVE-IIB                
1 44398U 19038N   21240.62442896  .00002422  00000-0  13631-3 0  9996
2 44398  97.5892 204.3413 0026030  61.7110 298.6767 15.13941298118686
SONATE                  
1 44400U 19038Q   21240.55346215  .00001083  00000-0  65273-4 0  9992
2 44400  97.5956 204.0850 0026354  62.8445 297.5466 15.12672407118636
LUCKY-7                 
1 44406U 19038W   21240.40512809  .00002138  00000-0  12360-3 0  9996
2 44406  97.5961 204.2219 0025699  62.8629 297.5218 15.13107802118621
BEESAT 9                
1 44412U 19038AC  21240.40745076  .00002853  00000-0  16212-3 0  9991
2 44412  97.5941 204.2718 0023742  67.7942 292.5805 15.13491787118332
JAISAT-1                
1 44419U 19038F   21240.42027540  .00002919  00000-0  16364-3 0  9990
2 44419  97.5946 204.8890 0022582  65.9624 294.3968 15.13977570118686
KRAKSAT                 
1 44427U 98067QM  21240.48110611  .00033512  00000-0  26241-3 0  9994
2 44427  51.6384 293.2010 0002126  82.0342  50.6915 15.71264120122782
VCC A                   
1 44428U 98067QN  21240.36817825  .00161962  00000-0  68762-3 0  9998
2 44428  51.6319 277.5404 0003351  31.3172 328.8031 15.84297505122980
ENTRYSAT                
1 44429U 98067QP  21222.50999637  .13114982  12639-4  26452-3 0  9996
2 44429  51.6073 351.2662 0008582 295.0172  64.9966 16.46454560120409
VCC B                   
1 44431U 98067QR  21240.33980040  .00186804  00000-0  73631-3 0  9992
2 44431  51.6276 276.4596 0004043  33.1416 326.9840 15.85769449122930
DUCHIFAT-3              
1 44854U 19089C   21239.70822297  .00000503  00000-0  46493-4 0  9994
2 44854  36.9662  39.2199 0009276 347.7446  12.3063 14.99586194 93802
EYESAT-NANO             
1 44877U 19092E   21240.39498051  .00003278  00000-0  16300-3 0  9992
2 44877  97.4629  63.0276 0011731 303.4502  56.5610 15.18287339 93858
ORBITAL FACTORY 2 (OF-2)
1 45113U 19071C   21240.16687846  .00008414  00000-0  24411-3 0  9999
2 45113  51.6425  49.6633 0011695 190.2867 169.7878 15.36310985 88198
M2 PATHFINDER           
1 45727U 20037E   21240.47489369 -.00000175  00000-0 -11962-4 0  9994
2 45727  97.7180  56.7449 0011679 292.0682  67.9285 14.91427435 63159
NETSAT-4                
1 46504U 20068U   21240.57534809  .00001332  00000-0  10563-3 0  9992
2 46504  97.6904 176.8353 0012710 237.0048 123.0000 15.02186148 50067
NETSAT-3                
1 46505U 20068V   21240.58386898  .00000608  00000-0  50839-4 0  9993
2 46505  97.6877 176.8053 0010765 251.9131 108.0986 15.02133910 50076
NETSAT-1                
1 46506U 20068W   21240.59190764 -.00000287  00000-0 -17227-4 0  9999
2 46506  97.6881 176.7862 0007765 270.3334  89.7020 15.02098144 50078
NETSAT-2                
1 46507U 20068X   21240.33016637 -.00000366  00000-0 -23235-4 0  9992
2 46507  97.6899 176.5270 0006161 280.6877  79.3653 15.02081316 49982
SPOC                    
1 46921U 98067RR  21240.56114180  .00022639  00000-0  32720-3 0  9996
2 46921  51.6424 336.0762 0002327 358.3084   1.7899 15.55836228 46085
BOBCAT-1                
1 46922U 98067RS  21240.28866711  .00036284  00000-0  47442-3 0  9998
2 46922  51.6425 335.0345 0002354   1.6428 358.4572 15.58271152 46030
NEUTRON-1               
1 46923U 98067RT  21240.32566872  .00021948  00000-0  31906-3 0  9998
2 46923  51.6424 337.5005 0002366   9.2265 350.8769 15.55698418 46079
1998-067RU              
1 46924U 98067RU  21239.97675099  .00057660  00000-0  59549-3 0  9993
2 46924  51.6390 331.3939 0002994  13.6682 346.4393 15.64197511 46093
DESCENT                 
1 46927U 98067RX  21239.81716944  .00014113  00000-0  20803-3 0  9991
2 46927  51.6425 340.1003 0002493  24.9651 335.1461 15.55675421 45901
SAI-1 NANOCONNECT-2     
1 47701U 21015C   21240.17165246 -.00000071  00000-0  00000-0 0  9998
2 47701  97.4547 314.2193 0013527  48.0128 312.2258 15.22938414 27530
WARP-01                 
1 47924U 98067SA  21240.00435370  .00022058  00000-0  34586-3 0  9993
2 47924  51.6428 344.3280 0005106  12.6898 347.4220 15.53607484 25916
RSP-01                  
1 47925U 98067SB  21240.02033022  .00018319  00000-0  29419-3 0  9998
2 47925  51.6431 344.4450 0002075 316.6772  43.4055 15.53082793 25897
TAUSAT-1                
1 47926U 98067SC  21240.40958017  .00028328  00000-0  43600-3 0  9990
2 47926  51.6422 341.7909 0003222 313.4304  46.6418 15.53975147 25957
TSURU                   
1 47927U 98067SD  21240.55036684  .00022702  00000-0  36632-3 0  9991
2 47927  51.6434 341.9845 0002085 315.8818  44.2006 15.52800331 25974
STARS-EC                
1 47928U 98067SE  21240.01231978  .00024025  00000-0  37659-3 0  9996
2 47928  51.6429 344.3833 0005765  15.6626 344.4542 15.53557069 25870
MAYA-2                  
1 47929U 98067SF  21240.35402080  .00022176  00000-0  35778-3 0  9993
2 47929  51.6434 342.9231 0002096 311.5324  48.5486 15.52818646 25903
HIROGARI (OPUSAT-II)    
1 47930U 98067SG  21240.55574718  .00036139  00000-0  55105-3 0  9995
2 47930  51.6429 341.2739 0002296 312.2900  47.7896 15.54108927 25984
GUARANISAT-1            
1 47931U 98067SH  21239.58024091  .00012601  00000-0  20690-3 0  9990
2 47931  51.6440 346.7573 0002124 306.9962  53.0834 15.52799326 25824
SMOG-1                  
1 47964U 21022AJ  21240.26879618  .00002914  00000-0  19650-3 0  9993
2 47964  97.5501 141.2746 0021337  61.8976 298.4405 15.07243111 22693
MMSATS-1                
1 47976U 98067SJ  21240.58099056  .00004809  00000-0  90873-4 0  9996
2 47976  51.6468 343.6541 0002473   9.7367 350.3671 15.50413617 24733
BCCSAT-1                
1 48041U 21022AK  21240.25846404  .00002384  00000-0  16426-3 0  9995
2 48041  97.5511 141.1563 0017617  59.8002 300.4967 15.06685381 22662
